[{"OBJECT_NAME":"OBJECT E","OBJECT_ID":"2024-153E","EPOCH":"2026-03-09T23:09:09.513216","MEAN_MOTION":15.24133271,"ECCENTRICITY":4.895e-5,"INCLINATION":97.6591,"RA_OF_ASC_NODE":203.8355,"ARG_OF_PERICENTER":171.5214,"MEAN_ANOMALY":188.6031,"EPHEMERIS_TYPE":0,"CLASSIFICATION_TYPE":"U","NORAD_CAT_ID":60749,"ELEMENT_SET_NO":999,"REV_AT_EPOCH":8470,"BSTAR":0.00081752478,"MEAN_MOTION_DOT":0.00019841,"MEAN_MOTION_DDOT":0},{"OBJECT_NAME":"TRANSPORTER-13 OBJECT U","OBJECT_ID":"2025-052U","EPOCH":"2026-03-09T16:34:18.384384","MEAN_MOTION":15.22399222,"ECCENTRICITY":0.00064743,"INCLINATION":97.4037,"RA_OF_ASC_NODE":322.9372,"ARG_OF_PERICENTER":126.5652,"MEAN_ANOMALY":233.6181,"EPHEMERIS_TYPE":0,"CLASSIFICATION_TYPE":"U","NORAD_CAT_ID":63228,"ELEMENT_SET_NO":999,"REV_AT_EPOCH":5472,"BSTAR":0.0003303988,"MEAN_MOTION_DOT":7.569e-5,"MEAN_MOTION_DDOT":0}]
